$$SOE
2460147.500000000, A.D. 2023-Jul-22 00:00:00.0000, 4.395153304637426E+08, -3.629916157185705E+08, -9.254336713073273E+07,
2460154.500000000, A.D. 2023-Jul-29 00:00:00.0000, 4.404246090898075E+08, -3.579857928669856E+08, -9.145731332117620E+07,
2460161.500000000, A.D. 2023-Aug-05 00:00:00.0000, 4.412213024225344E+08, -3.528884580646328E+08, -9.034788040884852E+07,
2460168.500000000, A.D. 2023-Aug-12 00:00:00.0000, 4.419035867504627E+08, -3.476996223463129E+08, -8.921502074763578E+07,
2460175.500000000, A.D. 2023-Aug-19 00:00:00.0000, 4.424695629177193E+08, -3.424192799698218E+08, -8.805868082899538E+07,
2460182.500000000, A.D. 2023-Aug-26 00:00:00.0000, 4.429172521893017E+08, -3.370474086553683E+08, -8.687880123615235E+07,
2460189.500000000, A.D. 2023-Sep-02 00:00:00.0000, 4.432445917893202E+08, -3.315839699200273E+08, -8.567531659950908E+07,
2460196.500000000, A.D. 2023-Sep-09 00:00:00.0000, 4.434494301215661E+08, -3.260289095535892E+08, -8.444815556049961E+07,
2460203.500000000, A.D. 2023-Sep-16 00:00:00.0000, 4.435295218109837E+08, -3.203821583001155E+08, -8.319724076483195E+07,
2460210.500000000, A.D. 2023-Sep-23 00:00:00.0000, 4.434825229496164E+08, -3.146436324660857E+08, -8.192248890086648E+07,
2460217.500000000, A.D. 2023-Sep-30 00:00:00.0000, 4.433059861712139E+08, -3.088132332740324E+08, -8.062381065590732E+07,
2460224.500000000, A.D. 2023-Oct-07 00:00:00.0000, 4.429973531597602E+08, -3.028908455163594E+08, -7.930111042024328E+07,
2460231.500000000, A.D. 2023-Oct-14 00:00:00.0000, 4.425539455844307E+08, -2.968763388354525E+08, -7.795428610631688E+07,
2460238.500000000, A.D. 2023-Oct-21 00:00:00.0000, 4.419729576363409E+08, -2.907695700409053E+08, -7.658322924946208E+07,
2460245.500000000, A.D. 2023-Oct-28 00:00:00.0000, 4.412514486840197E+08, -2.845703842194940E+08, -7.518782507652117E+07,
2460252.500000000, A.D. 2023-Nov-04 00:00:00.0000, 4.403863347318890E+08, -2.782786154270192E+08, -7.376795249272071E+07,
2460259.500000000, A.D. 2023-Nov-11 00:00:00.0000, 4.393743787852368E+08, -2.718940875836875E+08, -7.232348405462386E+07,
2460266.500000000, A.D. 2023-Nov-18 00:00:00.0000, 4.382121802576589E+08, -2.654166156627131E+08, -7.085428595761421E+07,
2460273.500000000, A.D. 2023-Nov-25 00:00:00.0000, 4.368961633994691E+08, -2.588460071793250E+08, -6.936021804654168E+07,
2460280.500000000, A.D. 2023-Dec-02 00:00:00.0000, 4.354225646684064E+08, -2.521820640263975E+08, -6.784113385770404E+07,
2460287.500000000, A.D. 2023-Dec-09 00:00:00.0000, 4.337874189989081E+08, -2.454245847567934E+08, -6.629688070979820E+07,
2460294.500000000, A.D. 2023-Dec-16 00:00:00.0000, 4.319865451189313E+08, -2.385733673480248E+08, -6.472729987604229E+07,
2460301.500000000, A.D. 2023-Dec-23 00:00:00.0000, 4.300155301053917E+08, -2.316282118184212E+08, -6.313222682166161E+07,
2460308.500000000, A.D. 2023-Dec-30 00:00:00.0000, 4.278697116592817E+08, -2.245889217138071E+08, -6.151149130854826E+07,
2460315.500000000, A.D. 2024-Jan-06 00:00:00.0000, 4.255441561223260E+08, -2.174553069079308E+08, -5.986491741020776E+07,
2460322.500000000, A.D. 2024-Jan-13 00:00:00.0000, 4.230336351693534E+08, -2.102271896208982E+08, -5.819232389085332E+07,
2460329.500000000, A.D. 2024-Jan-20 00:00:00.0000, 4.203326021253451E+08, -2.029044106864721E+08, -5.649352482724657E+07,
2460336.500000000, A.D. 2024-Jan-27 00:00:00.0000, 4.174351655620219E+08, -1.954868355556052E+08, -5.476833025658592E+07,
2460343.500000000, A.D. 2024-Feb-03 00:00:00.0000, 4.143350593783466E+08, -1.879743611538234E+08, -5.301654691642627E+07,
2460350.500000000, A.D. 2024-Feb-10 00:00:00.0000, 4.110256092144021E+08, -1.803669240882883E+08, -5.123797915985968E+07,
2460357.500000000, A.D. 2024-Feb-17 00:00:00.0000, 4.074996948374020E+08, -1.726645104455414E+08, -4.943243009986863E+07,
2460364.500000000, A.D. 2024-Feb-24 00:00:00.0000, 4.037497079497395E+08, -1.648671674692648E+08, -4.759970303665388E+07,
2460371.500000000, A.D. 2024-Mar-02 00:00:00.0000, 3.997675047587473E+08, -1.569750175239753E+08, -4.573960323746293E+07,
2460378.500000000, A.D. 2024-Mar-09 00:00:00.0000, 3.955443526315456E+08, -1.489882748678704E+08, -4.385194016677466E+07,
2460385.500000000, A.D. 2024-Mar-16 00:00:00.0000, 3.910708702624822E+08, -1.409072656068508E+08, -4.193653028710075E+07,
2460392.500000000, A.D. 2024-Mar-23 00:00:00.0000, 3.863369600990617E+08, -1.327324504289542E+08, -3.999320045649507E+07,
2460399.500000000, A.D. 2024-Mar-30 00:00:00.0000, 3.813317294120104E+08, -1.244644510362939E+08, -3.802179187955936E+07,
2460406.500000000, A.D. 2024-Apr-06 00:00:00.0000, 3.760433986115762E+08, -1.161040847665585E+08, -3.602216511425379E+07,
2460413.500000000, A.D. 2024-Apr-13 00:00:00.0000, 3.704591983583131E+08, -1.076524079896734E+08, -3.399420665181841E+07,
2460420.500000000, A.D. 2024-Apr-20 00:00:00.0000, 3.645652520859542E+08, -9.911076741354391E+07, -3.193783709855104E+07,
2460427.500000000, A.D. 2024-Apr-27 00:00:00.0000, 3.583464394585028E+08, -9.048086218395045E+07, -2.985302130106286E+07,
2460434.500000000, A.D. 2024-May-04 00:00:00.0000, 3.517862372258011E+08, -8.176482048798917E+07, -2.773978104987467E+07,
2460441.500000000, A.D. 2024-May-11 00:00:00.0000, 3.448665332589509E+08, -7.296529468729359E+07, -2.559821114251218E+07,
2460448.500000000, A.D. 2024-May-18 00:00:00.0000, 3.375674083322626E+08, -6.408558012950411E+07, -2.342849980986923E+07,
2460455.500000000, A.D. 2024-May-25 00:00:00.0000, 3.298668788097922E+08, -5.512976451552170E+07, -2.123095484614424E+07,
2460462.500000000, A.D. 2024-Jun-01 00:00:00.0000, 3.217405917011401E+08, -4.610291709474931E+07, -1.900603726230125E+07,
2460469.500000000, A.D. 2024-Jun-08 00:00:00.0000, 3.131614615201787E+08, -3.701133019793154E+07, -1.675440496250333E+07,
2460476.500000000, A.D. 2024-Jun-15 00:00:00.0000, 3.040992356827951E+08, -2.786282966838174E+07, -1.447696985849809E+07,
2460483.500000000, A.D. 2024-Jun-22 00:00:00.0000, 2.945199701260160E+08, -1.866717673277873E+07, -1.217497302498147E+07,
2460490.500000000, A.D. 2024-Jun-29 00:00:00.0000, 2.843853910500422E+08, -9.436596461303525E+06, -9.850084645215545E+06,
2460497.500000000, A.D. 2024-Jul-06 00:00:00.0000, 2.736521175053012E+08, -1.864827733114907E+05, -7.504538963444605E+06,
2460504.500000000, A.D. 2024-Jul-13 00:00:00.0000, 2.622707114568133E+08, 9.063654196150070E+06, -5.141318458212514E+06,
2460511.500000000, A.D. 2024-Jul-20 00:00:00.0000, 2.501845092220031E+08, 1.828889869809045E+07, -2.764408130352740E+06,
2460518.500000000, A.D. 2024-Jul-27 00:00:00.0000, 2.373281799083810E+08, 2.745714634178333E+07, -3.791518902150318E+05,
2460525.500000000, A.D. 2024-Aug-03 00:00:00.0000, 2.236259491895602E+08, 3.652659790179485E+07, 2.007239730764106E+06,
2460532.500000000, A.D. 2024-Aug-10 00:00:00.0000, 2.089894258376889E+08, 4.544217475905874E+07, 4.384953412757536E+06,
2460539.500000000, A.D. 2024-Aug-17 00:00:00.0000, 1.933149902023073E+08, 5.413029494131725E+07, 6.740485027573414E+06,
2460546.500000000, A.D. 2024-Aug-24 00:00:00.0000, 1.764807861414745E+08, 6.249110736937182E+07, 9.054998378912512E+06,
2460553.500000000, A.D. 2024-Aug-31 00:00:00.0000, 1.583435932727537E+08, 7.038671099173331E+07, 1.130179619741414E+07,
2460560.500000000, A.D. 2024-Sep-07 00:00:00.0000, 1.387364725809307E+08, 7.762293620571995E+07, 1.344234138213690E+07,
2460567.500000000, A.D. 2024-Sep-14 00:00:00.0000, 1.174696382465461E+08, 8.392075103249091E+07, 1.541988767151194E+07,
2460574.500000000, A.D. 2024-Sep-21 00:00:00.0000, 9.434089521468277E+07, 8.887126197667383E+07, 1.714920878979614E+07,
2460581.500000000, A.D. 2024-Sep-28 00:00:00.0000, 6.917142879817267E+07, 9.186689644530992E+07, 1.850035106858177E+07,
2460588.500000000, A.D. 2024-Oct-05 00:00:00.0000, 4.190386059569772E+07, 9.200785697166918E+07, 1.927520090652722E+07,
2460595.500000000, A.D. 2024-Oct-12 00:00:00.0000, 1.283476515633605E+07, 8.802471131460711E+07, 1.918396628925198E+07,
2460602.500000000, A.D. 2024-Oct-19 00:00:00.0000, -1.695141762956079E+07, 7.839922205300318E+07, 1.786015863354853E+07,
2460609.500000000, A.D. 2024-Oct-26 00:00:00.0000, -4.517974775616474E+07, 6.206579880059013E+07, 1.500527607399250E+07,
2460616.500000000, A.D. 2024-Nov-02 00:00:00.0000, -6.893120457049480E+07, 3.961650909941377E+07, 1.067111280003131E+07,
2460623.500000000, A.D. 2024-Nov-09 00:00:00.0000, -8.638948876182531E+07, 1.345239901636872E+07, 5.340971313654801E+06,
2460630.500000000, A.D. 2024-Nov-16 00:00:00.0000, -9.769437682194234E+07, -1.378061679225162E+07, -3.941673125868384E+05,
2460637.500000000, A.D. 2024-Nov-23 00:00:00.0000, -1.040596084597304E+08, -4.039794274127150E+07, -6.127367979491904E+06,
2460644.500000000, A.D. 2024-Nov-30 00:00:00.0000, -1.067827564134572E+08, -6.565361529433409E+07, -1.165770605230718E+07,
2460651.500000000, A.D. 2024-Dec-07 00:00:00.0000, -1.068829315069981E+08, -8.932979862474379E+07, -1.690904955040060E+07,
2460658.500000000, A.D. 2024-Dec-14 00:00:00.0000, -1.050869567183158E+08, -1.114429315102486E+08, -2.186522603463303E+07,
2460665.500000000, A.D. 2024-Dec-21 00:00:00.0000, -1.019014708651046E+08, -1.320973020483306E+08, -2.653556264329939E+07,
2460672.500000000, A.D. 2024-Dec-28 00:00:00.0000, -9.768156619823821E+07, -1.514212632579574E+08, -3.093885947657417E+07,
2460679.500000000, A.D. 2025-Jan-04 00:00:00.0000, -9.268013281531012E+07, -1.695415538034422E+08, -3.509634526519784E+07,
2460686.500000000, A.D. 2025-Jan-11 00:00:00.0000, -8.708076123111604E+07, -1.865740526091218E+08, -3.902872852049536E+07,
2460693.500000000, A.D. 2025-Jan-18 00:00:00.0000, -8.101932923519060E+07, -2.026213822177634E+08, -4.275507710797355E+07,
2460700.500000000, A.D. 2025-Jan-25 00:00:00.0000, -7.459824801149015E+07, -2.177732353954461E+08, -4.629250228732166E+07,
2460707.500000000, A.D. 2025-Feb-01 00:00:00.0000, -6.789600224930353E+07, -2.321076675208323E+08, -4.965618537102050E+07,
2460714.500000000, A.D. 2025-Feb-08 00:00:00.0000, -6.097365363628161E+07, -2.456926193075933E+08, -5.285953828340933E+07,
$$EOE